OBJECT_NAME,OBJECT_ID,EPOCH,MEAN_MOTION,ECCENTRICITY,INCLINATION,RA_OF_ASC_NODE,ARG_OF_PERICENTER,MEAN_ANOMALY,EPHEMERIS_TYPE,CLASSIFICATION_TYPE,NORAD_CAT_ID,ELEMENT_SET_NO,REV_AT_EPOCH,BSTAR,MEAN_MOTION_DOT,MEAN_MOTION_DDOT
SUOMI NPP,2011-061A,2026-05-21T15:01:49.684800,14.19511091,.00026776,98.7945,82.6855,59.2825,300.8614,0,U,37849,999,75467,.39746349E-4,.39E-6,0
YAOGAN-12,2011-066B,2026-05-21T14:02:01.482432,15.26220801,.00087377,97.1155,181.4087,329.6337,30.4395,0,U,37875,999,80798,.256958E-3,.6589E-4,0
BEIDOU-2 M4,2012-018B,2026-05-20T04:46:44.019840,1.86229401,.00110325,55.6827,305.0343,279.8130,80.0393,0,U,38251,999,9542,0,-.57E-6,0
ARIRANG-3 (KOMPSAT-3),2012-025B,2026-05-21T14:50:17.638944,14.62179223,.00050435,98.1157,99.5401,183.2137,176.9033,0,U,38338,999,74746,.60785231E-4,.259E-5,0
METOP-B,2012-049A,2026-05-21T13:57:32.928768,14.21424458,.00034088,98.6521,193.6092,75.9996,284.1561,0,U,38771,999,70948,.47540034E-4,.61E-6,0
SJ-9A,2012-056A,2026-05-21T13:21:44.959968,14.85411379,.00252575,97.6694,114.4760,348.7379,11.3268,0,U,38860,999,69563,.96416286E-4,.782E-5,0
COSMOS 2484 (RODNIK-S 6),2013-001C,2026-05-21T13:59:46.459104,12.42938111,.00275432,82.5029,238.4305,92.7187,267.7046,0,U,39059,999,60525,-.2570892E-5,.1E-6,0
SARAL,2013-009A,2026-05-21T13:48:01.815264,14.32848601,.00022369,98.5559,328.4795,36.0799,324.0536,0,U,39086,999,69179,.30319311E-4,.39E-6,0
STRAND-1,2013-009E,2026-05-21T11:02:53.586816,14.37145301,.00077108,98.3916,322.3538,317.1880,42.8706,0,U,39090,999,69322,.674022E-4,.158E-5,0
BRITE-AUSTRIA,2013-009F,2026-05-21T11:04:53.469408,14.36530086,.00094156,98.3989,321.5600,325.9302,34.1279,0,U,39091,999,69321,.50167539E-4,.105E-5,0
GAOFEN-1,2013-018A,2026-05-21T15:12:31.444128,14.76544423,.00169329,97.9096,214.2397,356.9173,3.1929,0,U,39150,999,70432,.13681089E-3,.905E-5,0
NEE-01 PEGASO,2013-018B,2026-05-20T07:53:49.185600,14.93503212,.00113766,98.1188,283.5678,253.7412,106.2555,0,U,39151,999,70654,.15394882E-3,.156E-4,0
PROBA-V,2013-021A,2026-05-21T08:10:27.928128,14.23590619,.00036493,98.3573,121.2751,195.1665,164.9405,0,U,39159,999,67729,.35040426E-4,.39E-6,0
ARIRANG-5 (KOMPSAT-5),2013-042A,2026-05-21T15:06:07.824672,15.04502222,.00025013,97.6208,328.7031,192.4012,167.7153,0,U,39227,999,69986,.33435063E-4,.407E-5,0
GONETS-M 5,2013-048A,2026-05-21T15:09:18.031680,12.42891439,.0015655,82.4840,359.9406,272.3233,87.6055,0,U,39249,999,57558,.42726754E-3,.69E-6,0
GONETS-M 7,2013-048C,2026-05-21T14:16:39.526752,12.42914560,.00164725,82.4909,2.8716,273.6809,86.2387,0,U,39251,999,57553,.10934683E-2,.161E-5,0
FENGYUN 3C,2013-052A,2026-05-21T14:41:03.587712,14.15747989,.00158584,98.4967,116.7098,98.9868,261.3103,0,U,39260,999,65480,.47927167E-4,.53E-6,0
CASSIOPE,2013-055A,2026-05-21T13:42:17.891424,15.22990627,.03001787,80.9138,98.9816,151.6038,210.1934,0,U,39265,999,66361,.28082011E-3,.24917E-3,-.696015E-6
APRIZESAT 7,2013-066A,2026-05-21T02:49:58.048608,14.91494658,.00345045,97.7694,94.7310,302.6100,57.1789,0,U,39416,999,67719,.65375749E-4,.603E-5,0
ZACUBE-1 (TSHEPISOSAT),2013-066B,2026-05-21T08:14:30.622272,15.00958035,.00407554,97.8120,103.5350,342.8760,17.1086,0,U,39417,999,67670,.24286166E-3,.3087E-4,0
APRIZESAT 8,2013-066K,2026-05-21T02:26:49.148736,14.87586067,.00464461,97.8208,88.9517,16.9876,343.2882,0,U,39425,999,67564,.82439751E-4,.706E-5,0
