SUOMI NPP               
1 37849U 11061A   26141.62626950  .00000039  00000+0  39746-4 0  9994
2 37849  98.7945  82.6855 0002677  59.2825 300.8614 14.19511091754675
YAOGAN-12               
1 37875U 11066B   26141.58473938  .00006589  00000+0  25696-3 0  9993
2 37875  97.1155 181.4087 0008737 329.6337  30.4395 15.26220801807980
BEIDOU-2 M4             
1 38251U 12018B   26140.19912060 -.00000057  00000+0  00000+0 0  9993
2 38251  55.6827 305.0343 0011032 279.8130  80.0393  1.86229401 95425
ARIRANG-3 (KOMPSAT-3)   
1 38338U 12025B   26141.61825971  .00000259  00000+0  60785-4 0  9993
2 38338  98.1157  99.5401 0005043 183.2137 176.9033 14.62179223747467
METOP-B                 
1 38771U 12049A   26141.58163112  .00000061  00000+0  47540-4 0  9993
2 38771  98.6521 193.6092 0003408  75.9996 284.1561 14.21424458709489
SJ-9A                   
1 38860U 12056A   26141.55677037  .00000782  00000+0  96416-4 0  9999
2 38860  97.6694 114.4760 0025257 348.7379  11.3268 14.85411379695636
COSMOS 2484 (RODNIK-S 6)
1 39059U 13001C   26141.58317661  .00000010  00000+0 -25709-5 0  9991
2 39059  82.5029 238.4305 0027543  92.7187 267.7046 12.42938111605256
SARAL                   
1 39086U 13009A   26141.57502101  .00000039  00000+0  30319-4 0  9995
2 39086  98.5559 328.4795 0002236  36.0799 324.0536 14.32848601691796
STRAND-1                
1 39090U 13009E   26141.46034244  .00000158  00000+0  67402-4 0  9991
2 39090  98.3916 322.3538 0007710 317.1880  42.8706 14.37145301693226
BRITE-AUSTRIA           
1 39091U 13009F   26141.46172997  .00000105  00000+0  50168-4 0  9993
2 39091  98.3989 321.5600 0009415 325.9302  34.1279 14.36530086693213
GAOFEN-1                
1 39150U 13018A   26141.63369727  .00000905  00000+0  13681-3 0  9993
2 39150  97.9096 214.2397 0016932 356.9173   3.1929 14.76544423704323
NEE-01 PEGASO           
1 39151U 13018B   26140.32904150  .00001560  00000+0  15395-3 0  9996
2 39151  98.1188 283.5678 0011376 253.7412 106.2555 14.93503212706543
PROBA-V                 
1 39159U 13021A   26141.34060102  .00000039  00000+0  35040-4 0  9991
2 39159  98.3573 121.2751 0003649 195.1665 164.9405 14.23590619677298
ARIRANG-5 (KOMPSAT-5)   
1 39227U 13042A   26141.62925723  .00000407  00000+0  33435-4 0  9995
2 39227  97.6208 328.7031 0002501 192.4012 167.7153 15.04502222699869
GONETS-M 5              
1 39249U 13048A   26141.63145870  .00000069  00000+0  42727-3 0  9990
2 39249  82.4840 359.9406 0015655 272.3233  87.6055 12.42891439575589
GONETS-M 7              
1 39251U 13048C   26141.59490193  .00000161  00000+0  10935-2 0  9997
2 39251  82.4909   2.8716 0016472 273.6809  86.2387 12.42914560575536
FENGYUN 3C              
1 39260U 13052A   26141.61184708  .00000053  00000+0  47927-4 0  9990
2 39260  98.4967 116.7098 0015858  98.9868 261.3103 14.15747989654806
CASSIOPE                
1 39265U 13055A   26141.57104041  .00024917 -69601-6  28082-3 0  9990
2 39265  80.9138  98.9816 0300178 151.6038 210.1934 15.22990627663615
APRIZESAT 7             
1 39416U 13066A   26141.11803297  .00000603  00000+0  65376-4 0  9993
2 39416  97.7694  94.7310 0034504 302.6100  57.1789 14.91494658677197
ZACUBE-1 (TSHEPISOSAT)  
1 39417U 13066B   26141.34340998  .00003087  00000+0  24286-3 0  9996
2 39417  97.8120 103.5350 0040755 342.8760  17.1086 15.00958035676706
APRIZESAT 8             
1 39425U 13066K   26141.10195774  .00000706  00000+0  82440-4 0  9991
2 39425  97.8208  88.9517 0046446  16.9876 343.2882 14.87586067675648
